H1 CPF 01  gfz 2022 10 25 00  7973 tandemx   
H2 1003001  6202 36605    2022 10 24 12 59 42 2022 10 29 00 00 42   120 1 1  0 0 0
H9
10 0 59877  43182.000000  0    -783777.171  -2953527.699  -6180942.936
10 0 59877  43302.000000  0    -852401.239  -2099542.525  -6512223.446
10 0 59877  43422.000000  0    -890984.662  -1208246.334  -6729878.360
10 0 59877  43542.000000  0    -898352.677   -295625.984  -6830163.976
10 0 59877  43662.000000  0    -874150.740    621965.236  -6811357.466
10 0 59877  43782.000000  0    -818853.753   1528093.193  -6673782.214
10 0 59877  43902.000000  0    -733757.352   2406529.541  -6419802.853
10 0 59877  44022.000000  0    -620951.006   3241535.356  -6053789.897
10 0 59877  44142.000000  0    -483272.855   4018140.059  -5582053.621
10 0 59877  44262.000000  0    -324246.906   4722409.334  -5012745.391
10 0 59877  44382.000000  0    -148004.131   5341698.653  -4355728.731
10 0 59877  44502.000000  0      40811.559   5864888.153  -3622418.857
10 0 59877  44622.000000  0     237151.120   6282592.380  -2825592.552
10 0 59877  44742.000000  0     435679.687   6587340.766  -1979171.371
10 0 59877  44862.000000  0     630904.904   6773724.465  -1097980.302
10 0 59877  44982.000000  0     817311.430   6838504.262   -197485.868
10 0 59877  45102.000000  0     989498.226   6780676.187    706480.967
10 0 59877  45222.000000  0    1142314.996   6601491.640   1598011.086
10 0 59877  45342.000000  0    1270992.984   6304432.439   2461405.346
10 0 59877  45462.000000  0    1371267.710   5895142.049   3281458.779
10 0 59877  45582.000000  0    1439491.243   5381314.130   4043736.079
10 0 59877  45702.000000  0    1472731.251   4772539.845   4734830.577
10 0 59877  45822.000000  0    1468853.116   4080118.410   5342604.571
10 0 59877  45942.000000  0    1426582.407   3316835.123   5856398.704
10 0 59877  46062.000000  0    1345549.723   2496718.516   6267213.902
10 0 59877  46182.000000  0    1226314.662   1634776.248   6567864.345
10 0 59877  46302.000000  0    1070369.580    746715.649   6753097.254
10 0 59877  46422.000000  0     880122.805   -151344.144   6819677.899
10 0 59877  46542.000000  0     658861.728  -1043163.294   6766443.382
10 0 59877  46662.000000  0     410695.820  -1912675.156   6594322.777
10 0 59877  46782.000000  0     140480.283  -2744275.629   6306322.049
10 0 59877  46902.000000  0    -146278.069  -3523104.911   5907474.072
10 0 59877  47022.000000  0    -443530.149  -4235313.808   5404753.265
10 0 59877  47142.000000  0    -744807.878  -4868312.047   4806960.713
10 0 59877  47262.000000  0   -1043360.673  -5410998.694   4124578.817
10 0 59877  47382.000000  0   -1332302.651  -5853967.614   3369591.239
10 0 59877  47502.000000  0   -1604765.922  -6189679.728   2555273.039
10 0 59877  47622.000000  0   -1854057.319  -6412600.488   1695956.777
10 0 59877  47742.000000  0   -2073815.445  -6519299.003    806775.814
10 0 59877  47862.000000  0   -2258161.719  -6508504.374    -96609.727
10 0 59877  47982.000000  0   -2401842.555  -6381118.782   -998297.345
10 0 59877  48102.000000  0   -2500359.419  -6140186.657  -1882430.828
10 0 59877  48222.000000  0   -2550083.737  -5790821.083  -2733486.978
10 0 59877  48342.000000  0   -2548353.357  -5340089.134  -3536554.579
10 0 59877  48462.000000  0   -2493547.897  -4796858.893  -4277598.611
10 0 59877  48582.000000  0   -2385141.650  -4171614.039  -4943703.581
10 0 59877  48702.000000  0   -2223733.728  -3476241.978  -5523292.792
10 0 59877  48822.000000  0   -2011055.412  -2723800.515  -6006321.349
10 0 59877  48942.000000  0   -1749954.224  -1928267.374  -6384440.541
10 0 59877  49062.000000  0   -1444354.939  -1104277.982  -6651130.559
10 0 59877  49182.000000  0   -1099200.105   -266857.557  -6801801.320
10 0 59877  49302.000000  0    -720370.842    568848.290  -6833862.250
10 0 59877  49422.000000  0    -314587.795   1387840.471  -6746761.738
10 0 59877  49542.000000  0     110704.822   2175528.432  -6541995.251
10 0 59877  49662.000000  0     547471.110   2917983.841  -6223084.154
10 0 59877  49782.000000  0     987232.089   3602184.252  -5795522.741
10 0 59877  49902.000000  0    1421225.982   4216240.505  -5266691.986
10 0 59877  50022.000000  0    1840578.674   4749605.566  -4645744.073
10 0 59877  50142.000000  0    2236482.317   5193262.550  -3943455.310
10 0 59877  50262.000000  0    2600377.664   5539885.577  -3172047.973
10 0 59877  50382.000000  0    2924136.905   5783970.990  -2344985.092
10 0 59877  50502.000000  0    3200243.482   5921935.447  -1476738.994
10 0 59877  50622.000000  0    3421963.511   5952177.276   -582537.268
10 0 59877  50742.000000  0    3583503.835   5875098.346    321908.969
10 0 59877  50862.000000  0    3680152.716   5693085.397   1220687.914
10 0 59877  50982.000000  0    3708400.431   5410451.316   2097974.526
10 0 59877  51102.000000  0    3666035.796   5033339.021   2938317.442
10 0 59877  51222.000000  0    3552215.646   4569587.650   3726920.569
10 0 59877  51342.000000  0    3367506.372   4028564.278   4449907.967
10 0 59877  51462.000000  0    3113896.524   3420970.508   5094572.893
10 0 59877  51582.000000  0    2794776.093   2758622.655   5649601.625
10 0 59877  51702.000000  0    2414890.947   2054215.435   6105266.938
10 0 59877  51822.000000  0    1980271.070   1321074.244   6453594.226
10 0 59877  51942.000000  0    1498131.553    572899.031   6688495.069
10 0 59877  52062.000000  0     976750.178   -176492.116   6805866.727
10 0 59877  52182.000000  0     425324.453   -913417.035   6803660.515
10 0 59877  52302.000000  0    -146191.014  -1624579.818   6681915.874
10 0 59877  52422.000000  0    -727264.405  -2297310.534   6442759.200
10 0 59877  52542.000000  0   -1306980.313  -2919791.227   6090367.710
10 0 59877  52662.000000  0   -1874242.122  -3481263.811   5630900.031
10 0 59877  52782.000000  0   -2417983.295  -3972218.746   5072396.288
10 0 59877  52902.000000  0   -2927385.613  -4384561.800   4424645.043
10 0 59877  53022.000000  0   -3392098.219  -4711753.887   3699016.139
10 0 59877  53142.000000  0   -3802450.790  -4948920.534   2908262.810
10 0 59877  53262.000000  0   -4149656.221  -5092929.087   2066297.584
10 0 59877  53382.000000  0   -4426000.345  -5142432.045   1187944.902
10 0 59877  53502.000000  0   -4625012.828  -5097873.815    288674.346
10 0 59877  53622.000000  0   -4741614.709  -4961461.166   -615679.272
10 0 59877  53742.000000  0   -4772238.891  -4737097.992  -1509203.975
10 0 59877  53862.000000  0   -4714919.270  -4430285.018  -2376200.261
10 0 59877  53982.000000  0   -4569346.431  -4047987.208  -3201464.167
10 0 59877  54102.000000  0   -4336889.558  -3598474.109  -3970557.280
10 0 59877  54222.000000  0   -4020584.953  -3091137.952  -4670059.273
10 0 59877  54342.000000  0   -3625091.940  -2536293.421  -5287798.664
10 0 59877  54462.000000  0   -3156617.464  -1944964.528  -5813057.344
10 0 59877  54582.000000  0   -2622812.549  -1328663.769  -6236746.911
10 0 59877  54702.000000  0   -2032642.208   -699167.619  -6551555.296
10 0 59877  54822.000000  0   -1396231.204    -68293.233  -6752061.020
10 0 59877  54942.000000  0    -724690.822    552318.830  -6834815.092
10 0 59877  55062.000000  0     -29928.597   1151413.618  -6798394.038
10 0 59877  55182.000000  0     675557.337   1718320.403  -6643421.390
10 0 59877  55302.000000  0    1378897.029   2243137.985  -6372560.584
10 0 59877  55422.000000  0    2067079.121   2716905.387  -5990474.234
10 0 59877  55542.000000  0    2727187.355   3131754.529  -5503752.206
10 0 59877  55662.000000  0    3346640.001   3481041.486  -4920807.848
10 0 59877  55782.000000  0    3913429.367   3759456.736  -4251745.041
10 0 59877  55902.000000  0    4416357.699   3963110.888  -3508193.716
10 0 59877  56022.000000  0    4845263.854   4089593.313  -2703115.562
10 0 59877  56142.000000  0    5191234.054   4138001.766  -1850582.526
10 0 59877  56262.000000  0    5446793.068   4108942.561   -965532.170
10 0 59877  56382.000000  0    5606069.962   4004499.938    -63503.215
10 0 59877  56502.000000  0    5664934.165   3828175.834    839642.178
10 0 59877  56622.000000  0    5621098.714   3584800.134   1728005.162
10 0 59877  56742.000000  0    5474185.902   3280413.000   2585939.034
10 0 59877  56862.000000  0    5225753.960   2922123.983   3398333.670
10 0 59877  56982.000000  0    4879284.054   2517950.183   4150889.408
10 0 59877  57102.000000  0    4440127.159   2076637.146   4830372.513
10 0 59877  57222.000000  0    3915417.008   1607470.255   5424848.122
10 0 59877  57342.000000  0    3313946.065   1120078.869   5923890.854
10 0 59877  57462.000000  0    2646008.986    624236.775   6318762.147
10 0 59877  57582.000000  0    1923220.688    129666.573   6602555.472
10 0 59877  57702.000000  0    1158311.683   -354149.417   6770312.038
10 0 59877  57822.000000  0     364901.182   -818150.574   6819103.873
10 0 59877  57942.000000  0    -442746.784  -1253867.225   6748080.759
10 0 59877  58062.000000  0   -1249979.514  -1653574.927   6558483.494
10 0 59877  58182.000000  0   -2042020.357  -2010431.423   6253622.064
10 0 59877  58302.000000  0   -2804236.803  -2318593.069   5838821.620
10 0 59877  58422.000000  0   -3522411.821  -2573312.179   5321338.214
10 0 59877  58542.000000  0   -4183014.537  -2771012.813   4710237.614
10 0 59877  58662.000000  0   -4773460.269  -2909341.696   4016240.411
10 0 59877  58782.000000  0   -5282356.405  -2987193.309   3251537.188
10 0 59877  58902.000000  0   -5699729.366  -3004709.449   2429576.724
10 0 59877  59022.000000  0   -6017228.531  -2963253.720   1564828.777
10 0 59877  59142.000000  0   -6228300.239  -2865360.493    672523.874
10 0 59877  59262.000000  0   -6328326.248  -2714657.675   -231622.289
10 0 59877  59382.000000  0   -6314725.084  -2515767.510  -1131694.071
10 0 59877  59502.000000  0   -6187011.224  -2274186.319  -2011866.351
10 0 59877  59622.000000  0   -5946810.427  -1996147.295  -2856690.403
99
